[{"OBJECT_NAME":"STARLINK-31152","OBJECT_ID":"2024-005G","EPOCH":"2026-03-09T11:11:59.277984","MEAN_MOTION":15.26736091,"ECCENTRICITY":0.00013467,"INCLINATION":42.9985,"RA_OF_ASC_NODE":220.6599,"ARG_OF_PERICENTER":280.6789,"MEAN_ANOMALY":79.391,"EPHEMERIS_TYPE":0,"CLASSIFICATION_TYPE":"U","NORAD_CAT_ID":58734,"ELEMENT_SET_NO":999,"REV_AT_EPOCH":12041,"BSTAR":-0.0001215847,"MEAN_MOTION_DOT":-3.519e-5,"MEAN_MOTION_DDOT":0},{"OBJECT_NAME":"CZ-4B R\/B","OBJECT_ID":"2019-059D","EPOCH":"2026-03-09T22:53:45.354624","MEAN_MOTION":15.13308828,"ECCENTRICITY":0.01361486,"INCLINATION":98.7209,"RA_OF_ASC_NODE":86.9492,"ARG_OF_PERICENTER":209.5346,"MEAN_ANOMALY":149.8142,"EPHEMERIS_TYPE":0,"CLASSIFICATION_TYPE":"U","NORAD_CAT_ID":44531,"ELEMENT_SET_NO":999,"REV_AT_EPOCH":35472,"BSTAR":0.00025424701,"MEAN_MOTION_DOT":5.595e-5,"MEAN_MOTION_DDOT":0}]
